[{"OBJECT_NAME":"YOUTHSAT","OBJECT_ID":"2011-015B","EPOCH":"2026-03-09T21:54:01.247616","MEAN_MOTION":14.25582623,"ECCENTRICITY":0.00132956,"INCLINATION":98.3595,"RA_OF_ASC_NODE":47.4945,"ARG_OF_PERICENTER":274.2418,"MEAN_ANOMALY":140.1556,"EPHEMERIS_TYPE":0,"CLASSIFICATION_TYPE":"U","NORAD_CAT_ID":37388,"ELEMENT_SET_NO":999,"REV_AT_EPOCH":77349,"BSTAR":0.00014902974,"MEAN_MOTION_DOT":3.12e-6,"MEAN_MOTION_DDOT":0},{"OBJECT_NAME":"SL-16 DEB","OBJECT_ID":"1992-093JU","EPOCH":"2026-03-08T18:58:57.527040","MEAN_MOTION":14.15085602,"ECCENTRICITY":0.00593694,"INCLINATION":70.9064,"RA_OF_ASC_NODE":119.3836,"ARG_OF_PERICENTER":299.2001,"MEAN_ANOMALY":60.319,"EPHEMERIS_TYPE":0,"CLASSIFICATION_TYPE":"U","NORAD_CAT_ID":39303,"ELEMENT_SET_NO":999,"REV_AT_EPOCH":63813,"BSTAR":0.00033166223,"MEAN_MOTION_DOT":6.06e-6,"MEAN_MOTION_DDOT":0}]
